OBJECT_NAME,OBJECT_ID,EPOCH,MEAN_MOTION,ECCENTRICITY,INCLINATION,RA_OF_ASC_NODE,ARG_OF_PERICENTER,MEAN_ANOMALY,EPHEMERIS_TYPE,CLASSIFICATION_TYPE,NORAD_CAT_ID,ELEMENT_SET_NO,REV_AT_EPOCH,BSTAR,MEAN_MOTION_DOT,MEAN_MOTION_DDOT
ONEWEB-0410,2022-012A,2026-06-12T19:30:41.560992,13.17648323,.0003125,87.9146,6.7269,77.7153,282.4329,0,U,51622,999,21312,.233E-4,.22E-6,0
ONEWEB-0411,2022-012B,2026-06-12T21:21:08.853120,13.10369390,.00016,87.8840,37.1224,100.0952,260.0356,0,U,51623,999,20872,-.16499E-3,-.45E-6,0
ONEWEB-0415,2022-012C,2026-06-12T21:16:22.652256,13.10369755,.0001774,87.8835,37.1222,90.6646,269.4685,0,U,51624,999,20872,.22553E-3,.91E-6,0
ONEWEB-0416,2022-012D,2026-06-12T03:13:33.232224,13.10371917,.00019909,87.8835,37.2901,94.6845,265.4510,0,U,51625,999,20866,-.1681742E-2,-.574E-5,0
ONEWEB-0422,2022-012E,2026-06-12T19:45:16.819776,13.17648365,.0001237,87.9143,6.7263,79.9086,280.2185,0,U,51626,999,21323,-.17598E-3,-.55E-6,0
ONEWEB-0423,2022-012F,2026-06-12T19:35:33.866880,13.17650231,.0001927,87.9138,6.7333,83.9726,276.1625,0,U,51627,999,21312,.57743E-4,.35E-6,0
ONEWEB-0425,2022-012G,2026-06-12T03:27:53.943840,13.10374768,.00021008,87.8838,37.2719,78.1277,282.0086,0,U,51628,999,20866,-.15353683E-2,-.523E-5,0
ONEWEB-0428,2022-012H,2026-06-12T21:18:45.690048,13.10369334,.0001761,87.8831,37.1306,81.2474,278.8853,0,U,51629,999,20872,-.11366E-3,-.27E-6,0
ONEWEB-0431,2022-012J,2026-06-12T04:05:57.601248,13.10375455,.00014491,87.8839,37.2659,99.5993,260.5298,0,U,51630,999,20868,.17036173E-2,.607E-5,0
ONEWEB-0434,2022-012K,2026-06-12T03:32:52.368576,13.10374747,.00023606,87.8844,37.2957,73.7610,286.3777,0,U,51631,999,20866,-.12957355E-2,-.44E-5,0
ONEWEB-0435,2022-012L,2026-06-12T03:44:36.636576,13.10374780,.00014313,87.8837,37.2806,80.3308,279.7981,0,U,51632,999,20865,-.16871058E-3,-.46E-6,0
ONEWEB-0436,2022-012M,2026-06-12T19:23:23.951040,13.17648821,.0001652,87.9145,6.7164,88.1249,272.0072,0,U,51633,999,21310,.88986E-4,.47E-6,0
ONEWEB-0438,2022-012N,2026-06-12T03:20:43.080000,13.10372424,.0001984,87.8836,37.2864,80.2702,279.8649,0,U,51634,999,20868,-.1733639E-2,-.592E-5,0
ONEWEB-0439,2022-012P,2026-06-12T01:35:33.750240,13.10371502,.00017067,87.8836,37.2889,76.3729,283.7588,0,U,51635,999,20865,-.24821463E-3,-.74E-6,0
ONEWEB-0442,2022-012Q,2026-06-12T19:12:28.423008,13.17648924,.0002403,87.9138,6.7511,84.3555,275.7851,0,U,51636,999,21309,.30882E-4,.25E-6,0
ONEWEB-0443,2022-012R,2026-06-12T19:40:24.458592,13.17649313,.0001838,87.9136,6.7484,75.9164,284.2171,0,U,51637,999,21314,.29547E-5,.14E-6,0
ONEWEB-0444,2022-012S,2026-06-12T05:01:06.681504,13.10371758,.0001822,87.8834,37.2586,76.7861,283.3470,0,U,51638,999,20868,-.13879782E-2,-.472E-5,0
ONEWEB-0445,2022-012T,2026-06-12T03:42:14.688288,13.10375918,.00018222,87.8847,37.2576,88.9896,271.1440,0,U,51639,999,20868,-.43120902E-3,-.138E-5,0
ONEWEB-0446,2022-012U,2026-06-12T04:58:43.068288,13.10370626,.00018375,87.8834,37.2758,86.7109,273.4229,0,U,51640,999,20867,-.14031257E-2,-.477E-5,0
ONEWEB-0448,2022-012V,2026-06-12T03:15:56.507616,13.10372583,.00017808,87.8833,37.2866,79.2287,280.9041,0,U,51641,999,20863,-.16473915E-2,-.562E-5,0
ONEWEB-0449,2022-012W,2026-06-12T03:23:06.567936,13.10373061,.00021769,87.8839,37.2712,75.8852,284.2517,0,U,51642,999,20864,-.18520956E-2,-.634E-5,0
ONEWEB-0451,2022-012X,2026-06-12T19:18:33.427584,13.17649007,.0002025,87.9148,6.7144,82.9662,277.1700,0,U,51643,999,21308,.12042E-3,.6E-6,0
ONEWEB-0452,2022-012Y,2026-06-12T19:16:06.564864,13.17649239,.0001945,87.9137,6.7521,77.9911,282.1438,0,U,51644,999,21309,.20623E-3,.93E-6,0
ONEWEB-0456,2022-012AA,2026-06-12T03:37:26.077728,13.10374459,.00016558,87.8850,37.2564,79.9185,280.2129,0,U,51646,999,20868,-.11353158E-2,-.384E-5,0
ONEWEB-0457,2022-012AB,2026-06-12T04:53:44.292768,13.10369716,.0002113,87.8832,37.2642,89.6048,270.5322,0,U,51647,999,20869,-.86968775E-3,-.291E-5,0
ONEWEB-0458,2022-012AC,2026-06-12T03:35:03.952320,13.10374399,.00018849,87.8848,37.2627,76.0993,284.0344,0,U,51648,999,20864,-.11255438E-2,-.38E-5,0
ONEWEB-0461,2022-012AD,2026-06-12T19:47:41.839584,13.17648268,.0001938,87.9144,6.7247,89.2201,270.9153,0,U,51649,999,21331,.41757E-4,.29E-6,0
ONEWEB-0463,2022-012AE,2026-06-12T19:20:58.915680,13.17649112,.0001946,87.9135,6.7511,90.8240,269.3115,0,U,51650,999,21309,.19411E-3,.88E-6,0
ONEWEB-0464,2022-012AF,2026-06-12T03:30:16.852896,13.10374475,.0001633,87.8839,37.2854,74.2942,285.8366,0,U,51651,999,20866,-.14832851E-2,-.505E-5,0
ONEWEB-0468,2022-012AG,2026-06-12T03:39:51.007680,13.10375561,.00015772,87.8837,37.2782,73.1263,287.0037,0,U,51652,999,20864,-.63508905E-3,-.209E-5,0
