ONEWEB-0410             
1 51622U 22012A   26163.81298103  .00000022  00000+0  23300-4 0  9998
2 51622  87.9146   6.7269 0003125  77.7153 282.4329 13.17648323213121
ONEWEB-0411             
1 51623U 22012B   26163.88968580 -.00000045  00000+0 -16499-3 0  9996
2 51623  87.8840  37.1224 0001600 100.0952 260.0356 13.10369390208723
ONEWEB-0415             
1 51624U 22012C   26163.88637329  .00000091  00000+0  22553-3 0  9998
2 51624  87.8835  37.1222 0001774  90.6646 269.4685 13.10369755208725
ONEWEB-0416             
1 51625U 22012D   26163.13441241 -.00000574  00000+0 -16817-2 0  9996
2 51625  87.8835  37.2901 0001990  94.6845 265.4510 13.10371917208665
ONEWEB-0422             
1 51626U 22012E   26163.82311134 -.00000055  00000+0 -17598-3 0  9992
2 51626  87.9143   6.7263 0001237  79.9086 280.2185 13.17648365213231
ONEWEB-0423             
1 51627U 22012F   26163.81636420  .00000035  00000+0  57743-4 0  9993
2 51627  87.9138   6.7333 0001927  83.9726 276.1625 13.17650231213122
ONEWEB-0425             
1 51628U 22012G   26163.14437435 -.00000523  00000+0 -15354-2 0  9999
2 51628  87.8838  37.2719 0002100  78.1277 282.0086 13.10374768208668
ONEWEB-0428             
1 51629U 22012H   26163.88802882 -.00000027  00000+0 -11366-3 0  9992
2 51629  87.8831  37.1306 0001761  81.2474 278.8853 13.10369334208724
ONEWEB-0431             
1 51630U 22012J   26163.17080557  .00000607  00000+0  17036-2 0  9994
2 51630  87.8839  37.2659 0001449  99.5993 260.5298 13.10375455208684
ONEWEB-0434             
1 51631U 22012K   26163.14782834 -.00000440  00000+0 -12957-2 0  9993
2 51631  87.8844  37.2957 0002360  73.7610 286.3777 13.10374747208664
ONEWEB-0435             
1 51632U 22012L   26163.15597959 -.00000046  00000+0 -16871-3 0  9999
2 51632  87.8837  37.2806 0001431  80.3308 279.7981 13.10374780208655
ONEWEB-0436             
1 51633U 22012M   26163.80791610  .00000047  00000+0  88986-4 0  9998
2 51633  87.9145   6.7164 0001652  88.1249 272.0072 13.17648821213102
ONEWEB-0438             
1 51634U 22012N   26163.13938750 -.00000592  00000+0 -17336-2 0  9999
2 51634  87.8836  37.2864 0001984  80.2702 279.8649 13.10372424208688
ONEWEB-0439             
1 51635U 22012P   26163.06636285 -.00000074  00000+0 -24821-3 0  9993
2 51635  87.8836  37.2889 0001706  76.3729 283.7588 13.10371502208652
ONEWEB-0442             
1 51636U 22012Q   26163.80032897  .00000025  00000+0  30882-4 0  9994
2 51636  87.9138   6.7511 0002403  84.3555 275.7851 13.17648924213093
ONEWEB-0443             
1 51637U 22012R   26163.81972753  .00000014  00000+0  29547-5 0  9995
2 51637  87.9136   6.7484 0001838  75.9164 284.2171 13.17649313213143
ONEWEB-0444             
1 51638U 22012S   26163.20910511 -.00000472  00000+0 -13880-2 0  9993
2 51638  87.8834  37.2586 0001822  76.7861 283.3470 13.10371758208689
ONEWEB-0445             
1 51639U 22012T   26163.15433667 -.00000138  00000+0 -43121-3 0  9991
2 51639  87.8847  37.2576 0001822  88.9896 271.1440 13.10375918208680
ONEWEB-0446             
1 51640U 22012U   26163.20744292 -.00000477  00000+0 -14031-2 0  9991
2 51640  87.8834  37.2758 0001837  86.7109 273.4229 13.10370626208679
ONEWEB-0448             
1 51641U 22012V   26163.13607069 -.00000562  00000+0 -16474-2 0  9992
2 51641  87.8833  37.2866 0001780  79.2287 280.9041 13.10372583208635
ONEWEB-0449             
1 51642U 22012W   26163.14104824 -.00000634  00000+0 -18521-2 0  9990
2 51642  87.8839  37.2712 0002176  75.8852 284.2517 13.10373061208640
ONEWEB-0451             
1 51643U 22012X   26163.80455356  .00000060  00000+0  12042-3 0  9997
2 51643  87.9148   6.7144 0002025  82.9662 277.1700 13.17649007213088
ONEWEB-0452             
1 51644U 22012Y   26163.80285376  .00000093  00000+0  20623-3 0  9991
2 51644  87.9137   6.7521 0001945  77.9911 282.1438 13.17649239213099
ONEWEB-0456             
1 51646U 22012AA  26163.15099627 -.00000384  00000+0 -11353-2 0  9997
2 51646  87.8850  37.2564 0001655  79.9185 280.2129 13.10374459208688
ONEWEB-0457             
1 51647U 22012AB  26163.20398487 -.00000291  00000+0 -86969-3 0  9993
2 51647  87.8832  37.2642 0002113  89.6048 270.5322 13.10369716208690
ONEWEB-0458             
1 51648U 22012AC  26163.14935130 -.00000380  00000+0 -11255-2 0  9993
2 51648  87.8848  37.2627 0001884  76.0993 284.0344 13.10374399208646
ONEWEB-0461             
1 51649U 22012AD  26163.82478981  .00000029  00000+0  41757-4 0  9995
2 51649  87.9144   6.7247 0001938  89.2201 270.9153 13.17648268213312
ONEWEB-0463             
1 51650U 22012AE  26163.80623745  .00000088  00000+0  19411-3 0  9991
2 51650  87.9135   6.7511 0001946  90.8240 269.3115 13.17649112213092
ONEWEB-0464             
1 51651U 22012AF  26163.14602839 -.00000505  00000+0 -14833-2 0  9998
2 51651  87.8839  37.2854 0001633  74.2942 285.8366 13.10374475208668
ONEWEB-0468             
1 51652U 22012AG  26163.15267370 -.00000209  00000+0 -63509-3 0  9993
2 51652  87.8837  37.2782 0001577  73.1263 287.0037 13.10375561208642
